NORAD_CAT_ID,OBJECT_NAME,OBJECT_TYPE,EPOCH,MEAN_MOTION,ECCENTRICITY,INCLINATION,RA_OF_ASC_NODE,ARG_OF_PERICENTER,MEAN_ANOMALY,BSTAR,MEAN_MOTION_DOT,MEAN_MOTION_DDOT,TLE_LINE0,TLE_LINE1,TLE_LINE2,SEMIMAJOR_AXIS,PERIOD,APOGEE,PERIGEE,DECAYED
54065.0,STARLINK-5187,PAYLOAD,2023-05-18 13:10:14,15.08836859,0.0001102,53.2184,270.5001,93.9162,266.1956,5.9685e-05,6.62e-06,0.0,0 STARLINK-5187,1 54065U 22136Q   23138.54878388  .00000662  00000-0  59685-4 0  9993,2 54065  53.2184 270.5001 0001102  93.9162 266.1956 15.08836859 31938,6917.89,95.438,540.517,538.993,0.0
54065.0,STARLINK-5187,PAYLOAD,2023-05-18 17:56:24,15.08842647,0.0001091,53.2165,269.6063,86.0012,274.1105,4.4303e-05,4.17e-06,0.0,0 STARLINK-5187,1 54065U 22136Q   23138.74750062  .00000417  00000-0  44303-4 0  9992,2 54065  53.2165 269.6063 0001091  86.0012 274.1105 15.08842647 31968,6917.872,95.437,540.492,538.983,0.0
54065.0,STARLINK-5187,PAYLOAD,2023-05-19 01:53:20,15.08836214,0.000119,53.2169,268.1197,81.3828,278.7299,6.6252e-05,7.67e-06,0.0,0 STARLINK-5187,1 54065U 22136Q   23139.07870445  .00000767  00000-0  66252-4 0  9992,2 54065  53.2169 268.1197 0001190  81.3828 278.7299 15.08836214 32493,6917.892,95.438,540.58,538.934,0.0
54065.0,STARLINK-5187,PAYLOAD,2023-05-19 11:25:39,15.08834352,0.0001088,53.216,266.335,81.5708,278.5407,6.6233e-05,7.66e-06,0.0,0 STARLINK-5187,1 54065U 22136Q   23139.47614646  .00000766  00000-0  66233-4 0  9993,2 54065  53.2160 266.3350 0001088  81.5708 278.5407 15.08834352 32074,6917.898,95.438,540.515,539.01,0.0
54065.0,STARLINK-5187,PAYLOAD,2023-05-20 01:44:06,15.08843138,9.98e-05,53.216,263.6586,93.3511,266.7595,7.7184e-05,9.41e-06,0.0,0 STARLINK-5187,1 54065U 22136Q   23140.07229974  .00000941  00000-0  77184-4 0  9999,2 54065  53.2160 263.6586 0000998  93.3511 266.7595 15.08843138 32649,6917.871,95.437,540.426,539.045,0.0
54065.0,STARLINK-5187,PAYLOAD,2023-05-20 14:27:10,15.08854618,9.71e-05,53.2154,261.2792,80.428,279.6821,0.00011218,1.499e-05,0.0,0 STARLINK-5187,1 54065U 22136Q   23140.60221027  .00001499  00000-0  11218-3 0  9993,2 54065  53.2154 261.2792 0000971  80.4280 279.6821 15.08854618 32725,6917.836,95.437,540.372,539.029,0.0
54065.0,STARLINK-5187,PAYLOAD,2023-05-21 01:34:53,15.08849472,0.000161,53.2142,259.2057,50.154,309.9593,0.00012735,1.74e-05,0.0,0 STARLINK-5187,1 54065U 22136Q   23141.06589221  .00001740  00000-0  12735-3 0  9991,2 54065  53.2142 259.2057 0001610  50.1540 309.9593 15.08849472 32799,6917.851,95.437,540.83,538.603,0.0
54065.0,STARLINK-5187,PAYLOAD,2023-05-21 07:56:26,15.08836383,0.0001547,53.2162,258.01,86.8895,273.2274,3.3265e-05,2.41e-06,0.0,0 STARLINK-5187,1 54065U 22136Q   23141.33086345  .00000241  00000-0  33265-4 0  9997,2 54065  53.2162 258.0100 0001547  86.8895 273.2274 15.08836383 32836,6917.891,95.438,540.827,538.686,0.0
54065.0,STARLINK-5187,PAYLOAD,2023-05-21 11:07:13,15.08826566,9.76e-05,53.216,257.4154,90.7768,269.3336,-5.0564e-05,-1.092e-05,0.0,0 STARLINK-5187,1 54065U 22136Q   23141.46335136 -.00001092  00000-0 -50564-4 0  9994,2 54065  53.2160 257.4154 0000976  90.7768 269.3336 15.08826566 32370,6917.921,95.438,540.462,539.111,0.0
54065.0,STARLINK-5187,PAYLOAD,2023-05-21 17:28:45,15.08835329,0.0001039,53.2163,256.2244,106.2994,253.8112,-2.8802e-05,-7.46e-06,0.0,0 STARLINK-5187,1 54065U 22136Q   23141.72830621 -.00000746  00000-0 -28802-4 0  9997,2 54065  53.2163 256.2244 0001039 106.2994 253.8112 15.08835329 32417,6917.895,95.438,540.478,539.041,0.0
54065.0,STARLINK-5187,PAYLOAD,2023-05-22 14:08:45,15.08847559,9.35e-05,53.2167,252.3585,92.3642,267.7457,4.3529e-05,4.05e-06,0.0,0 STARLINK-5187,1 54065U 22136Q   23142.58941813  .00000405  00000-0  43529-4 0  9991,2 54065  53.2167 252.3585 0000935  92.3642 267.7457 15.08847559 32543,6917.857,95.437,540.369,539.075,0.0
54065.0,STARLINK-5187,PAYLOAD,2023-05-22 17:19:32,15.08818443,0.0001219,53.2158,251.7647,153.4819,206.6236,0.00053575,8.244e-05,0.0,0 STARLINK-5187,1 54065U 22136Q   23142.72190233  .00008244  00000-0  53575-3 0  9999,2 54065  53.2158 251.7647 0001219 153.4819 206.6236 15.08818443 33049,6917.946,95.439,540.655,538.968,0.0
54065.0,STARLINK-5187,PAYLOAD,2023-05-23 13:59:33,15.08831395,0.000111,53.2166,247.8956,105.9967,254.1148,0.000108,1.431e-05,0.0,0 STARLINK-5187,1 54065U 22136Q   23143.58303017  .00001431  00000-0  10800-3 0  9995,2 54065  53.2166 247.8956 0001110 105.9967 254.1148 15.08831395 32694,6917.907,95.438,540.54,539.004,0.0
54065.0,STARLINK-5187,PAYLOAD,2023-05-23 23:31:52,15.08834256,0.0001062,53.2166,246.1104,85.0242,275.0871,0.00011488,1.541e-05,0.0,0 STARLINK-5187,1 54065U 22136Q   23143.98046977  .00001541  00000-0  11488-3 0  9993,2 54065  53.2166 246.1104 0001062  85.0242 275.0871 15.08834256 33236,6917.898,95.438,540.498,539.028,0.0
54065.0,STARLINK-5187,PAYLOAD,2023-05-24 05:53:25,15.08834837,0.0001146,53.2171,244.9251,97.6168,262.4954,9.3821e-05,1.205e-05,0.0,0 STARLINK-5187,1 54065U 22136Q   23144.24543240  .00001205  00000-0  93821-4 0  9997,2 54065  53.2171 244.9251 0001146  97.6168 262.4954 15.08834837 32797,6917.896,95.438,540.554,538.968,0.0
54065.0,STARLINK-5187,PAYLOAD,2023-05-25 13:41:08,15.08834258,0.0001272,53.2168,238.9799,83.4681,276.6456,9.0056e-05,1.145e-05,0.0,0 STARLINK-5187,1 54065U 22136Q   23145.57023551  .00001145  00000-0  90056-4 0  9992,2 54065  53.2168 238.9799 0001272  83.4681 276.6456 15.08834258 32999,6917.898,95.438,540.643,538.883,0.0
54065.0,STARLINK-5187,PAYLOAD,2023-05-25 15:16:31,15.08840249,0.0001498,53.2174,238.682,87.638,272.4784,4.1243e-05,3.68e-06,0.0,0 STARLINK-5187,1 54065U 22136Q   23145.63647305  .00000368  00000-0  41243-4 0  9998,2 54065  53.2174 238.6820 0001498  87.6380 272.4784 15.08840249 33480,6917.88,95.438,540.781,538.708,0.0
54065.0,STARLINK-5187,PAYLOAD,2023-05-26 13:31:54,15.08848778,0.0001875,53.2169,234.519,101.3676,258.7527,2.8533e-05,1.66e-06,0.0,0 STARLINK-5187,1 54065U 22136Q   23146.56382730  .00000166  00000-0  28533-4 0  9992,2 54065  53.2169 234.5190 0001875 101.3676 258.7527 15.08848778 33140,6917.854,95.437,541.016,538.421,0.0
54065.0,STARLINK-5187,PAYLOAD,2023-05-26 23:04:13,15.08843947,0.0001215,53.2168,232.7349,91.8722,268.2409,6.1731e-05,6.95e-06,0.0,0 STARLINK-5187,1 54065U 22136Q   23146.96126868  .00000695  00000-0  61731-4 0  9998,2 54065  53.2168 232.7349 0001215  91.8722 268.2409 15.08843947 33685,6917.868,95.437,540.574,538.893,0.0
54065.0,STARLINK-5187,PAYLOAD,2023-05-27 11:47:18,15.0884095,0.0001108,53.2157,230.3554,85.4473,274.6645,6.4719e-05,7.42e-06,0.0,0 STARLINK-5187,1 54065U 22136Q   23147.49119074  .00000742  00000-0  64719-4 0  9990,2 54065  53.2157 230.3554 0001108  85.4473 274.6645 15.08840950 33288,6917.877,95.437,540.509,538.976,0.0
54065.0,STARLINK-5187,PAYLOAD,2023-05-28 05:16:33,15.08843769,0.0001123,53.2157,227.0843,84.6924,275.4197,5.2423e-05,5.47e-06,0.0,0 STARLINK-5187,1 54065U 22136Q   23148.21982875  .00000547  00000-0  52423-4 0  9990,2 54065  53.2157 227.0843 0001123  84.6924 275.4197 15.08843769 33395,6917.869,95.437,540.511,538.957,0.0
54065.0,STARLINK-5187,PAYLOAD,2023-05-28 10:02:42,15.08844993,0.0001126,53.2158,226.1924,83.8051,276.307,5.9722e-05,6.63e-06,0.0,0 STARLINK-5187,1 54065U 22136Q   23148.41854713  .00000663  00000-0  59722-4 0  9999,2 54065  53.2158 226.1924 0001126  83.8051 276.3070 15.08844993 33908,6917.865,95.437,540.509,538.951,0.0
54065.0,STARLINK-5187,PAYLOAD,2023-05-28 14:48:51,15.08849251,0.0001145,53.2157,225.2999,85.8763,274.236,8.8477e-05,1.121e-05,0.0,0 STARLINK-5187,1 54065U 22136Q   23148.61726287  .00001121  00000-0  88477-4 0  9994,2 54065  53.2157 225.2999 0001145  85.8763 274.2360 15.08849251 33453,6917.852,95.437,540.509,538.925,0.0
54065.0,STARLINK-5187,PAYLOAD,2023-05-29 05:07:20,15.08838668,0.0001168,53.2153,222.6233,87.4158,272.6968,4.1117e-05,3.67e-06,0.0,0 STARLINK-5187,1 54065U 22136Q   23149.21342933  .00000367  00000-0  41117-4 0  9994,2 54065  53.2153 222.6233 0001168  87.4158 272.6968 15.08838668 34022,6917.884,95.438,540.557,538.941,0.0
54065.0,STARLINK-5187,PAYLOAD,2023-05-29 11:28:52,15.08841854,0.0001203,53.2158,221.4334,93.433,266.68,5.3908e-05,5.7e-06,0.0,0 STARLINK-5187,1 54065U 22136Q   23149.47838625  .00000570  00000-0  53908-4 0  9997,2 54065  53.2158 221.4334 0001203  93.4330 266.6800 15.08841854 33584,6917.875,95.437,540.572,538.908,0.0
54065.0,STARLINK-5187,PAYLOAD,2023-05-30 08:08:53,15.08836352,0.0001279,53.2159,217.5671,95.5553,264.5585,-2.2433e-05,-6.45e-06,0.0,0 STARLINK-5187,1 54065U 22136Q   23150.33951250 -.00000645  00000-0 -22433-4 0  9998,2 54065  53.2159 217.5671 0001279  95.5553 264.5585 15.08836352 34190,6917.892,95.438,540.641,538.872,0.0
54065.0,STARLINK-5187,PAYLOAD,2023-05-30 11:19:40,15.08836434,0.0001249,53.2159,216.9724,96.8586,263.2548,-3.0109e-05,-7.67e-06,0.0,0 STARLINK-5187,1 54065U 22136Q   23150.47199274 -.00000767  00000-0 -30109-4 0  9997,2 54065  53.2159 216.9724 0001249  96.8586 263.2548 15.08836434 33734,6917.891,95.438,540.62,538.892,0.0
54065.0,STARLINK-5187,PAYLOAD,2023-05-30 20:51:58,15.08837455,0.000126,53.2162,215.1884,94.7237,265.3899,-9.55e-06,-4.4e-06,0.0,0 STARLINK-5187,1 54065U 22136Q   23150.86943193 -.00000440  00000-0 -95500-5 0  9992,2 54065  53.2162 215.1884 0001260  94.7237 265.3899 15.08837455 33791,6917.888,95.438,540.625,538.882,0.0
54065.0,STARLINK-5187,PAYLOAD,2023-05-31 09:35:03,15.08839594,0.0001192,53.2156,212.8098,92.4687,267.6442,5.7669e-05,6.3e-06,0.0,0 STARLINK-5187,1 54065U 22136Q   23151.39934947  .00000630  00000-0  57669-4 0  9990,2 54065  53.2156 212.8098 0001192  92.4687 267.6442 15.08839594 34351,6917.882,95.438,540.571,538.922,0.0
54065.0,STARLINK-5187,PAYLOAD,2023-05-31 11:10:26,15.08841223,0.000119,53.2158,212.5123,87.3736,272.7392,5.3899e-05,5.7e-06,0.0,0 STARLINK-5187,1 54065U 22136Q   23151.46558873  .00000570  00000-0  53899-4 0  9992,2 54065  53.2158 212.5123 0001190  87.3736 272.7392 15.08841223 33885,6917.877,95.437,540.565,538.918,0.0
